GLOBALSTAR M057         
1 25943U 99058A   25080.55021426 -.00000077  00000+0  14277-3 0  9992
2 25943  51.9968 236.9157 0002856 178.9239 181.1617 12.24815764156193
GLOBALSTAR M059         
1 25944U 99058B   25080.48725189 -.00000069  00000+0  20703-3 0  9994
2 25944  52.0005  84.4269 0000634 136.1276  31.3101 11.99974992563519
GLOBALSTAR M056         
1 25945U 99058C   25080.41793043 -.00000059  00000+0  33340-3 0  9992
2 25945  51.9946  88.8257 0000932  17.1851 133.6376 12.04777790152041
GLOBALSTAR M031         
1 25946U 99058D   25080.87991012  .00000083  00000+0  17617-2 0  9993
2 25946  51.9996 345.1274 0001727  24.2543  71.8236 12.16032571154162
GLOBALSTAR M039         
1 25961U 99062A   25080.51231349 -.00000061  00000+0  24024-3 0  9994
2 25961  51.9841 175.7568 0003281 147.9731 212.1335 12.62321340169140
GLOBALSTAR M034         
1 25962U 99062B   25080.57746904 -.00000049  00000+0  51341-3 0  9997
2 25962  51.9856 239.1225 0013636 232.3407 204.3317 11.79445930128053
GLOBALSTAR M029         
1 25963U 99062C   25080.80518425 -.00000039  00000+0  58147-3 0  9999
2 25963  51.9834 331.6830 0002110 321.9385 125.3777 11.99893116158684
GLOBALSTAR M061         
1 25964U 99062D   25080.31411267 -.00000057  00000+0  37652-3 0  9990
2 25964  51.9795  62.6720 0006014 158.2274 346.7766 11.76772232110837
